NORAD_CAT_ID,OBJECT_NAME,OBJECT_TYPE,EPOCH,MEAN_MOTION,ECCENTRICITY,INCLINATION,RA_OF_ASC_NODE,ARG_OF_PERICENTER,MEAN_ANOMALY,BSTAR,MEAN_MOTION_DOT,MEAN_MOTION_DDOT,TLE_LINE0,TLE_LINE1,TLE_LINE2,SEMIMAJOR_AXIS,PERIOD,APOGEE,PERIGEE,DECAYED
52601.0,STARLINK-4027,PAYLOAD,2024-03-26 20:34:43,15.0883033,0.0001349,53.2163,239.1473,77.1275,282.9868,-8.4849e-05,-1.638e-05,0.0,0 STARLINK-4027,1 52601U 22052D   24086.85744315 -.00001638  00000-0 -84849-4 0  9999,2 52601  53.2163 239.1473 0001349  77.1275 282.9868 15.08830330104044,6917.91,95.438,540.708,538.842,0.0
52601.0,STARLINK-4027,PAYLOAD,2024-03-27 14:03:57,15.08842169,0.0001204,53.2154,235.8753,75.1849,284.9277,0.00018252,2.618e-05,0.0,0 STARLINK-4027,1 52601U 22052D   24087.58608149  .00002618  00000-0  18252-3 0  9995,2 52601  53.2154 235.8753 0001204  75.1849 284.9277 15.08842169104154,6917.874,95.437,540.572,538.906,0.0
52601.0,STARLINK-4027,PAYLOAD,2024-03-27 20:25:29,15.08858142,0.0001319,53.2162,234.687,74.5288,285.585,0.00082668,0.000129,0.0,0 STARLINK-4027,1 52601U 22052D   24087.85104003  .00012900  00000-0  82668-3 0  9992,2 52601  53.2162 234.6870 0001319  74.5288 285.5850 15.08858142103765,6917.825,95.436,540.602,538.777,0.0
52601.0,STARLINK-4027,PAYLOAD,2024-03-28 02:47:03,15.0883192,0.0002105,53.2159,233.4973,67.7507,292.3708,0.00028376,4.23e-05,0.0,0 STARLINK-4027,1 52601U 22052D   24088.11601160  .00004230  00000-0  28376-3 0  9991,2 52601  53.2159 233.4973 0002105  67.7507 292.3708 15.08831920103802,6917.905,95.438,541.226,538.314,0.0
52601.0,STARLINK-4027,PAYLOAD,2024-03-28 09:08:37,15.08824371,0.0004557,53.2157,232.3077,73.7105,286.4388,6.7491e-05,7.85e-06,0.0,0 STARLINK-4027,1 52601U 22052D   24088.38098575  .00000785  00000-0  67491-4 0  9993,2 52601  53.2157 232.3077 0004557  73.7105 286.4388 15.08824371103841,6917.928,95.439,542.946,536.641,0.0
52601.0,STARLINK-4027,PAYLOAD,2024-03-29 08:59:22,15.08871781,0.0002019,53.2164,227.8477,108.0238,252.0975,0.001139,0.00017902,0.0,0 STARLINK-4027,1 52601U 22052D   24089.37456377  .00017902  00000-0  11390-2 0  9995,2 52601  53.2164 227.8477 0002019 108.0238 252.0975 15.08871781103996,6917.783,95.436,541.045,538.252,0.0
52601.0,STARLINK-4027,PAYLOAD,2024-03-29 15:20:54,15.08886596,0.0002625,53.2168,226.6591,94.6461,265.4831,0.0011097,0.0001744,0.0,0 STARLINK-4027,1 52601U 22052D   24089.63951965  .00017440  00000-0  11097-2 0  9998,2 52601  53.2168 226.6591 0002625  94.6461 265.4831 15.08886596104467,6917.738,95.435,541.419,537.787,0.0
52601.0,STARLINK-4027,PAYLOAD,2024-03-30 02:28:35,15.08877246,5.9e-05,53.2161,224.5767,294.4145,65.6785,0.00094638,0.00014821,0.0,0 STARLINK-4027,1 52601U 22052D   24090.10318951  .00014821  00000-0  94638-3 0  9997,2 52601  53.2161 224.5767 0000590 294.4145  65.6785 15.08877246104101,6917.767,95.435,540.04,539.223,0.0
52601.0,STARLINK-4027,PAYLOAD,2024-03-30 13:36:18,15.0885661,0.0002009,53.2128,222.4942,88.134,271.9883,-0.00084265,-0.0001368,0.0,0 STARLINK-4027,1 52601U 22052D   24090.56687538 -.00013680  00000-0 -84265-3 0  9996,2 52601  53.2128 222.4942 0002009  88.1340 271.9883 15.08856610104178,6917.83,95.437,541.084,538.305,0.0
52601.0,STARLINK-4027,PAYLOAD,2024-03-30 15:11:41,15.08849275,0.0001735,53.2128,222.1987,79.1463,280.9724,-0.0004653,-7.688e-05,0.0,0 STARLINK-4027,1 52601U 22052D   24090.63311714 -.00007688  00000-0 -46530-3 0  9998,2 52601  53.2128 222.1987 0001735  79.1463 280.9724 15.08849275104617,6917.852,95.437,540.917,538.517,0.0
52601.0,STARLINK-4027,PAYLOAD,2024-03-31 15:02:28,15.08853342,0.0001399,53.2162,217.7381,78.152,281.9629,0.00044326,6.776e-05,0.0,0 STARLINK-4027,1 52601U 22052D   24091.62671857  .00006776  00000-0  44326-3 0  9991,2 52601  53.2162 217.7381 0001399  78.1520 281.9629 15.08853342104763,6917.84,95.437,540.672,538.737,0.0
52601.0,STARLINK-4027,PAYLOAD,2024-04-01 11:42:29,15.08835189,0.0001522,53.2156,213.8707,79.8668,280.2496,8.3687e-05,1.044e-05,0.0,0 STARLINK-4027,1 52601U 22052D   24092.48784690  .00001044  00000-0  83687-4 0  9993,2 52601  53.2156 213.8707 0001522  79.8668 280.2496 15.08835189104464,6917.895,95.438,540.813,538.707,0.0
52601.0,STARLINK-4027,PAYLOAD,2024-04-01 14:53:16,15.08837485,0.0001358,53.2164,213.2738,79.7736,280.3409,0.00018488,2.655e-05,0.0,0 STARLINK-4027,1 52601U 22052D   24092.62032705  .00002655  00000-0  18488-3 0  9997,2 52601  53.2164 213.2738 0001358  79.7736 280.3409 15.08837485104919,6917.888,95.438,540.693,538.814,0.0
52601.0,STARLINK-4027,PAYLOAD,2024-04-02 11:33:16,15.08847826,0.0001399,53.2162,209.4124,83.3945,276.7207,0.00023641,3.477e-05,0.0,0 STARLINK-4027,1 52601U 22052D   24093.48144355  .00003477  00000-0  23641-3 0  9997,2 52601  53.2162 209.4124 0001399  83.3945 276.7207 15.08847826104613,6917.856,95.437,540.689,538.754,0.0
52601.0,STARLINK-4027,PAYLOAD,2024-04-02 14:44:02,15.08854319,0.0001402,53.2166,208.8194,85.1813,274.9339,0.00036306,5.497e-05,0.0,0 STARLINK-4027,1 52601U 22052D   24093.61392089  .00005497  00000-0  36306-3 0  9997,2 52601  53.2166 208.8194 0001402  85.1813 274.9339 15.08854319105067,6917.837,95.437,540.672,538.732,0.0
52601.0,STARLINK-4027,PAYLOAD,2024-04-03 11:24:04,15.08835069,0.0001667,53.2175,204.9564,99.7611,260.3569,8.3036e-06,-1.56e-06,0.0,0 STARLINK-4027,1 52601U 22052D   24094.47504791 -.00000156  00000-0  83036-5 0  9999,2 52601  53.2175 204.9564 0001667  99.7611 260.3569 15.08835069104766,6917.895,95.438,540.914,538.607,0.0
52601.0,STARLINK-4027,PAYLOAD,2024-04-03 14:34:50,15.08835345,0.0001616,53.2177,204.3612,96.8618,263.2558,-1.7601e-05,-5.68e-06,0.0,0 STARLINK-4027,1 52601U 22052D   24094.60752796 -.00000568  00000-0 -17601-4 0  9996,2 52601  53.2177 204.3612 0001616  96.8618 263.2558 15.08835345105213,6917.895,95.438,540.878,538.642,0.0
52601.0,STARLINK-4027,PAYLOAD,2024-04-04 12:50:14,15.08840322,0.0001579,53.2167,200.1964,93.5798,266.5375,-4.8299e-06,-3.65e-06,0.0,0 STARLINK-4027,1 52601U 22052D   24095.53488863 -.00000365  00000-0 -48299-5 0  9993,2 52601  53.2167 200.1964 0001579  93.5798 266.5375 15.08840322104928,6917.879,95.438,540.837,538.652,0.0
52601.0,STARLINK-4027,PAYLOAD,2024-04-04 14:25:37,15.08842275,0.0001546,53.2166,199.899,92.1884,267.9285,3.2031e-05,2.22e-06,0.0,0 STARLINK-4027,1 52601U 22052D   24095.60112785  .00000222  00000-0  32031-4 0  9994,2 52601  53.2166 199.8990 0001546  92.1884 267.9285 15.08842275105368,6917.873,95.437,540.808,538.669,0.0
52601.0,STARLINK-4027,PAYLOAD,2024-04-05 14:16:24,15.08855623,0.0001578,53.2163,195.4379,90.8841,269.2332,0.00044788,6.85e-05,0.0,0 STARLINK-4027,1 52601U 22052D   24096.59472296  .00006850  00000-0  44788-3 0  9993,2 52601  53.2163 195.4379 0001578  90.8841 269.2332 15.08855623105517,6917.833,95.437,540.789,538.606,0.0
52601.0,STARLINK-4027,PAYLOAD,2024-04-06 12:31:48,15.0884794,0.0001782,53.2182,191.2763,79.9939,280.1255,0.00015094,2.115e-05,0.0,0 STARLINK-4027,1 52601U 22052D   24097.52208404  .00002115  00000-0  15094-3 0  9993,2 52601  53.2182 191.2763 0001782  79.9939 280.1255 15.08847940105229,6917.856,95.437,540.954,538.488,0.0
52601.0,STARLINK-4027,PAYLOAD,2024-04-07 09:11:49,15.08837061,0.0001363,53.2154,187.4085,88.6271,271.4877,7.5092e-06,-1.68e-06,0.0,0 STARLINK-4027,1 52601U 22052D   24098.38320842 -.00000168  00000-0  75092-5 0  9992,2 52601  53.2154 187.4085 0001363  88.6271 271.4877 15.08837061105353,6917.889,95.438,540.697,538.811,0.0
52601.0,STARLINK-4027,PAYLOAD,2024-04-07 12:22:35,15.08838659,0.0001411,53.2153,186.8132,90.9562,269.1591,5.5608e-05,5.97e-06,0.0,0 STARLINK-4027,1 52601U 22052D   24098.51568815  .00000597  00000-0  55608-4 0  9996,2 52601  53.2153 186.8132 0001411  90.9562 269.1591 15.08838659105802,6917.884,95.438,540.726,538.773,0.0
52601.0,STARLINK-4027,PAYLOAD,2024-04-08 10:37:59,15.08838008,0.0001305,53.2163,182.6503,92.1459,267.9683,0.00015053,2.108e-05,0.0,0 STARLINK-4027,1 52601U 22052D   24099.44305196  .00002108  00000-0  15053-3 0  9999,2 52601  53.2163 182.6503 0001305  92.1459 267.9683 15.08838008105514,6917.886,95.438,540.654,538.849,0.0
52601.0,STARLINK-4027,PAYLOAD,2024-04-09 10:28:46,15.08844766,0.0001386,53.2167,178.1892,92.7543,267.3607,0.00019753,2.858e-05,0.0,0 STARLINK-4027,1 52601U 22052D   24100.43664927  .00002858  00000-0  19753-3 0  9994,2 52601  53.2167 178.1892 0001386  92.7543 267.3607 15.08844766106090,6917.866,95.437,540.69,538.772,0.0
52601.0,STARLINK-4027,PAYLOAD,2024-04-09 21:36:28,15.08846186,0.0001369,53.2165,176.1086,83.515,276.5998,0.0001929,2.784e-05,0.0,0 STARLINK-4027,1 52601U 22052D   24100.90032802  .00002784  00000-0  19290-3 0  9991,2 52601  53.2165 176.1086 0001369  83.5150 276.5998 15.08846186106165,6917.861,95.437,540.674,538.779,0.0
52601.0,STARLINK-4027,PAYLOAD,2024-04-10 05:33:23,15.08845083,0.0001523,53.2173,174.6252,105.6208,254.4952,0.00012657,1.727e-05,0.0,0 STARLINK-4027,1 52601U 22052D   24101.23152767  .00001727  00000-0  12657-3 0  9997,2 52601  53.2173 174.6252 0001523 105.6208 254.4952 15.08845083105781,6917.865,95.437,540.783,538.676,0.0
52601.0,STARLINK-4027,PAYLOAD,2024-04-10 11:54:56,15.08847608,0.0001572,53.2174,173.4355,109.0222,251.094,0.00013909,1.927e-05,0.0,0 STARLINK-4027,1 52601U 22052D   24101.49648510  .00001927  00000-0  13909-3 0  9994,2 52601  53.2174 173.4355 0001572 109.0222 251.0940 15.08847608106259,6917.857,95.437,540.81,538.635,0.0
52601.0,STARLINK-4027,PAYLOAD,2024-04-10 21:27:15,15.08844825,0.0001173,53.215,171.6473,70.6997,289.4121,6.3654e-05,7.25e-06,0.0,0 STARLINK-4027,1 52601U 22052D   24101.89392514  .00000725  00000-0  63654-4 0  9996,2 52601  53.2150 171.6473 0001173  70.6997 289.4121 15.08844825106314,6917.866,95.437,540.542,538.919,0.0
52601.0,STARLINK-4027,PAYLOAD,2024-04-11 11:45:43,15.0883834,0.0001996,53.2175,168.9743,99.9573,260.1645,-3.0112e-05,-7.67e-06,0.0,0 STARLINK-4027,1 52601U 22052D   24102.49009052 -.00000767  00000-0 -30112-4 0  9996,2 52601  53.2175 168.9743 0001996  99.9573 260.1645 15.08838340105970,6917.885,95.438,541.131,538.37,0.0
